ONEWEB-0650             
1 55813U 23029T   24096.55697372  .00000088  00000+0  18679-3 0  9992
2 55813  87.9101 104.7297 0001648  98.2650 261.8670 13.19727023 53035
ONEWEB-0652             
1 55814U 23029U   24096.50744299  .00000308  00000+0  79510-3 0  9995
2 55814  87.8900  89.4430 0002070  85.2469 274.8897 13.14504293 53913
ONEWEB-0653             
1 55815U 23029V   24096.49158973  .00000125  00000+0  30254-3 0  9991
2 55815  87.8903  89.4240 0002010  76.8771 283.2583 13.14503789 53940
ONEWEB-0654             
1 55816U 23029W   24096.71518384 -.00000014  00000+0 -71862-4 0  9993
2 55816  87.8899  89.3916 0002412  81.1829 278.9573 13.14500719 54685
ONEWEB-0656             
1 55817U 23029X   24096.48514259  .00000072  00000+0  14571-3 0  9990
2 55817  87.9157  74.1335 0002625  90.9634 269.1800 13.20769501 55194
ONEWEB-0657             
1 55818U 23029Y   24096.55224387  .00000022  00000+0  22839-4 0  9991
2 55818  87.9101 104.7359 0002707 105.1793 254.9639 13.19725818 53041
ONEWEB-0658             
1 55819U 23029Z   24096.54750362  .00000074  00000+0  15340-3 0  9993
2 55819  87.9101 104.6730 0001376 104.4762 255.6524 13.19725909 53056
ONEWEB-0660             
1 55820U 23029AA  24096.54074647 -.00000133  00000+0 -39253-3 0  9997
2 55820  87.8900  89.4016 0001511  74.6135 285.5161 13.14503558 53951
